EINSTEIN PROBE          
1 58753U 24007A   24030.53341720  .00004261  00000+0  38473-3 0  9995
2 58753  28.9987  69.8073 0011469 147.2221 212.9088 14.93246753  3182
CZ-2C R/B               
1 58754U 24007B   24030.50058525  .00010838  00000+0  47794-3 0  9994
2 58754  29.0181  65.4947 0113092 209.5257 149.8921 15.14460580  3172
NANOFF B                
1 58755U 23185S   24030.43985347  .00004067  00000+0  31429-3 0  9999
2 58755  97.6403  99.3405 0016755  44.9815 315.2764 15.01972051  2995
TIANXING-1 02           
1 58756U 24008A   24030.44075103  .00137034  00000+0  61090-3 0  9994
2 58756  95.1246  99.5740 0023826 121.2675 239.0938 15.83477579  3046
YUNYAO-1 18             
1 58758U 24009A   24030.58679238  .00027004  00000+0  10123-2 0  9996
2 58758  49.9926  76.0937 0014346   7.0121 353.1034 15.26921919  2955
YUNYAO-1 19             
1 58759U 24009B   24030.58716657  .00027266  00000+0  10230-2 0  9993
2 58759  49.9863  76.0873 0014012   7.5799 352.5367 15.26891946  2960
YUNYAO-1 20             
1 58760U 24009C   24030.58603176  .00027144  00000+0  10156-2 0  9998
2 58760  49.9928  76.0889 0014093   9.4700 350.6519 15.26984934  2961
GRAVITY-1 R/B           
1 58761U 24009D   24030.46716127  .00064402  11604-4  37772-3 0  9996
2 58761  49.8516  71.1121 0156802  64.7742 296.9390 15.63099757  3011
STARLINK-31127          
1 58765U 24011A   24030.58334491 -.01683711  00000+0 -18372-1 0  9995
2 58765  53.1604 256.6896 0000546  91.5898 325.7515 15.65967160  3691
STARLINK-31114          
1 58766U 24011B   24030.58334491 -.01682777  00000+0 -18360-1 0  9994
2 58766  53.1604 256.6873 0000836  75.2163 342.9983 15.65964858  3694
STARLINK-31140          
1 58767U 24011C   24030.58334491 -.01684306  00000+0 -18381-1 0  9998
2 58767  53.1596 256.6856 0000606  91.7428 327.3444 15.65964379  3808
STARLINK-31145          
1 58768U 24011D   24030.58334491 -.01682648  00000+0 -18361-1 0  9994
2 58768  53.1597 256.6836 0000750  72.2154 347.7442 15.65962207  3697
STARLINK-31146          
1 58769U 24011E   24030.58334491 -.01684567  00000+0 -18386-1 0  9994
2 58769  53.1598 256.6819 0000648  92.6921 328.1410 15.65961617  3809
STARLINK-31143          
1 58770U 24011F   24030.58334491 -.01683432  00000+0 -18372-1 0  9991
2 58770  53.1599 256.6797 0000874  81.0740 340.6322 15.65959270  3699
STARLINK-31135          
1 58771U 24011G   24030.58334491 -.01685209  00000+0 -18394-1 0  9990
2 58771  53.1600 256.6780 0000942  81.9839 340.5951 15.65958637  3692
STARLINK-31136          
1 58772U 24011H   24030.58334491 -.01682695  00000+0 -18366-1 0  9996
2 58772  53.1599 256.6762 0000750  81.4441 342.0074 15.65956298  3808
STARLINK-31073          
1 58773U 24011J   24030.58334491 -.01688161  00000+0 -18431-1 0  9994
2 58773  53.1599 256.6744 0000894 111.9245 312.3984 15.65958628  3695
STARLINK-31122          
1 58774U 24011K   24030.58334491 -.01684192  00000+0 -18385-1 0  9993
2 58774  53.1600 256.6726 0000927  80.0130 345.1844 15.65953944  3779
STARLINK-31123          
1 58775U 24011L   24030.58334491 -.01682787  00000+0 -18370-1 0  9996
2 58775  53.1600 256.6707 0000791  77.5713 348.4985 15.65952063  3690
STARLINK-31117          
1 58776U 24011M   24030.58334491 -.01684189  00000+0 -18387-1 0  9993
2 58776  53.1600 256.6689 0000906  77.2534 349.6889 15.65951428  3663
STARLINK-31132          
1 58777U 24011N   24030.58334491 -.01683730  00000+0 -18383-1 0  9991
2 58777  53.1599 256.6670 0000840  78.1192 349.6958 15.65949827  3801
STARLINK-31120          
1 58778U 24011P   24030.58334491 -.01682876  00000+0 -18375-1 0  9993
2 58778  53.1600 256.6632 0000836  78.8871 350.6739 15.65946377  3669
STARLINK-31142          
1 58779U 24011Q   24030.58334491 -.01684700  00000+0 -18395-1 0  9994
2 58779  53.1599 256.6647 0000946  78.5706 350.1173 15.65948791  3770
STARLINK-31103          
1 58780U 24011R   24030.58334491 -.01683661  00000+0 -18385-1 0  9990
2 58780  53.1600 256.6612 0000888  77.5385 352.8951 15.65945509  3692
STARLINK-31099          
1 58781U 24011S   24030.58334491 -.01685081  00000+0 -18404-1 0  9991
2 58781  53.1601 256.6576 0000942  87.8141 344.3656 15.65943123  3663
STARLINK-31060          
1 58782U 24011T   24030.62894197  .00091791  00000+0  62522-3 0  9999
2 58782  53.1614 256.3744 0000878 178.8871 181.2151 15.74152224  3809
STARLINK-31047          
1 58783U 24011U   24030.58334491 -.01696241  00000+0 -16248-1 0  9997
2 58783  53.1603 256.4522 0000941  76.0675  97.4097 15.69152089  3692
STARLINK-31039          
1 58784U 24011V   24030.58334491 -.01685045  00000+0 -18405-1 0  9995
2 58784  53.1599 256.6541 0001002  61.1754  12.7480 15.65940560  3693
STARLINK-31034          
1 58785U 24011W   24030.58334491 -.01023670  00000+0 -72584-2 0  9995
2 58785  53.1599 256.1636 0000774  79.9743 234.2556 15.75654120  3672
STARLINK-31024          
1 58786U 24011X   24030.58334491 -.01687644  00000+0 -18438-1 0  9990
2 58786  53.1598 256.6499 0001049  82.8175 352.8516 15.65939100  3667
STARLINK-31189          
1 58787U 24012A   24030.58334491 -.00329191  00000+0 -23304-2 0  9990
2 58787  43.0023 183.8980 0002613 270.5169 253.9589 15.73966316  3537
STARLINK-31185          
1 58788U 24012B   24030.58334491 -.00109841  00000+0 -76154-3 0  9991
2 58788  43.0018 183.8955 0001320 267.5536 257.8087 15.73792093  3683
STARLINK-31166          
1 58789U 24012C   24030.58334491 -.00020523  00000+0 -13875-3 0  9992
2 58789  43.0017 183.8933 0001970 268.3490 258.0044 15.73692359  3543
STARLINK-31187          
1 58790U 24012D   24030.58334491 -.00001314  00000+0 -58234-5 0  9991
2 58790  43.0018 183.8913 0001552 279.9092 247.2063 15.73750228  3682
STARLINK-31162          
1 58791U 24012E   24030.58334491 -.01731961  00000+0 -13913-1 0  9992
2 58791  43.0018 183.7329 0001463 266.0691 324.4313 15.73118372  3691
STARLINK-31194          
1 58792U 24012F   24030.58334491 -.01149968  00000+0 -73226-2 0  9997
2 58792  43.0038 183.3929 0001494 271.3642  94.6017 15.78105533  3692
STARLINK-31184          
1 58793U 24012G   24030.58334491 -.00010521  00000+0 -69088-4 0  9992
2 58793  43.0016 183.8846 0001713 251.1414 278.4919 15.73819618  3604
STARLINK-31192          
1 58794U 24012H   24030.58334491 -.00054848  00000+0 -37524-3 0  9992
2 58794  43.0016 183.8828 0001443 244.7966 285.7221 15.73849321  3538
STARLINK-31161          
1 58795U 24012J   24030.58334491 -.00014024  00000+0 -93191-4 0  9998
2 58795  43.0017 183.8804 0001631 288.2481 243.1665 15.73822508  3693
STARLINK-31195          
1 58796U 24012K   24030.58334491 -.00132727  00000+0 -92059-3 0  9991
2 58796  43.0016 183.8780 0001305 276.3754 255.9399 15.73862209  3692
STARLINK-31193          
1 58797U 24012L   24030.58334491 -.00073325  00000+0 -50336-3 0  9992
2 58797  43.0018 183.8758 0000321 296.8474 236.3000 15.73873840  3698
STARLINK-31168          
1 58798U 24012M   24030.58334491  .00030872  00000+0  21371-3 0  9998
2 58798  43.0017 183.8732 0001724 250.1902 283.8444 15.73888505  3678
STARLINK-31154          
1 58799U 24012N   24030.58334491  .00036818  00000+0  25514-3 0  9998
2 58799  43.0014 183.8480 0000814 337.9797 205.7547 15.73791907  3576
STARLINK-31191          
1 58800U 24012P   24030.58334491 -.00098584  00000+0 -67878-3 0  9990
2 58800  43.0016 183.8709 0001314 311.1790 223.7141 15.73909758  3528
STARLINK-31170          
1 58801U 24012Q   24030.58334491  .00135079  00000+0  92171-3 0  9994
2 58801  43.0015 183.8682 0001380 297.3946 238.5021 15.73664641  3675
STARLINK-31173          
1 58802U 24012R   24030.58334491 -.00177469  19228-4 -39525-3 0  9997
2 58802  43.0014 182.6381 0002275 308.1965 356.2734 15.96648595  3689
STARLINK-31141          
1 58803U 24012S   24030.58334491  .00156722  00000+0  10639-2 0  9992
2 58803  43.0015 183.8614 0001605 289.1999 249.2616 15.73712610  3690
STARLINK-31188          
1 58804U 24012T   24030.58334491  .00067212  00000+0  46194-3 0  9994
2 58804  43.0014 183.8637 0001617 301.6950 235.8816 15.73766123  3696
STARLINK-31105          
1 58805U 24012U   24030.58334491 -.00010703  00000+0 -70356-4 0  9998
2 58805  43.0016 183.8593 0001591 288.0241 251.2971 15.73814393  3543
STARLINK-31138          
1 58806U 24012V   24030.58334491  .00042820  00000+0  29626-3 0  9995
2 58806  43.0016 183.8571 0001445 308.7075 231.5041 15.73771093  3675
STARLINK-31163          
1 58807U 24012W   24030.58334491  .00072576  00000+0  49706-3 0  9998
2 58807  43.0015 183.8547 0001459 276.3888 264.7353 15.73820875  3672
STARLINK-31174          
1 58808U 24012X   24030.58334491 -.00104428  00000+0 -71957-3 0  9996
2 58808  43.0016 183.8525 0001888 297.4566 244.4797 15.73912252  3671
STARLINK-31169          
1 58809U 24012Y   24030.58334491 -.00053033  00000+0 -36334-3 0  9992
2 58809  43.0015 183.8506 0001897 279.6090 263.2917 15.73802911  3699
NANOFF A                
1 58810U 23185T   24029.79184023  .00004237  00000+0  32841-3 0  9998
2 58810  97.6416  98.6894 0013698  49.2557  46.4273 15.01865590  2064
TIANZHOU-7              
1 58811U 24013A   24029.72084256  .00017763  00000+0  19408-3 0  9992
2 58811  41.4668 215.2374 0008666 263.4173  96.5680 15.62873697157269
CZ-7 DEB                
1 58813U 24013C   24018.11402078 -.00002294  72670-5  00000+0 0  9997
2 58813  41.8298 285.9373 0234014 181.6233 328.2070 15.73710950    93
CZ-7 DEB                
1 58814U 24013D   24018.11444661 -.00002240  70950-5  00000+0 0  9992
2 58814  41.6413 286.0086 0240306 187.1577 323.2676 15.72861586    84
AXIOM-3                 
1 58815U 24014A   24029.71294400  .00016928  00000+0  31093-3 0  9996
2 58815  51.6414 286.4804 0002586 175.9223 279.6916 15.49349721436921
